HST                     
1 20580U 90037B   26169.12115247  .00005032  00000+0  15694-3 0  9998
2 20580  28.4721  74.1921 0001766 152.2420 207.8270 15.30755230788719
POLAR                   
1 23802U 96013A   26168.03699460  .00000126  00000+0  00000+0 0  9991
2 23802  79.8537 227.0540 6470315 209.0838  89.8323  1.29846136144857
SWAS                    
1 25560U 98071A   26169.27464098  .00002201  00000+0  14297-3 0  9997
2 25560  69.8945 224.7150 0008652 258.9479 101.0712 15.09630832497433
CXO                     
1 25867U 99040B   26172.02247085  .00000453  00000+0  00000+0 0  9996
2 25867  56.2474 116.4966 7828329 310.2765   0.2930  0.37807394 17333
XMM-NEWTON              
1 25989U 99066A   26169.34668136 -.00000002  00000+0  00000+0 0  9995
2 25989  64.4794 282.9700 4673195  64.9038   0.0897  0.50127427 23010
TERRA                   
1 25994U 99068A   26169.24652362  .00000327  00000+0  75437-4 0  9996
2 25994  97.9456 218.7508 0001668 185.9258 215.8449 14.61103942409761
CLUSTER II-FM7 (SAMBA)  
1 26410U 00041A   26168.13893488  .00013373  00000+0  00000+0 0  9990
2 26410 149.9159  50.9864 9054007 268.1291 359.6411  0.44868040 20307
CLUSTER II-FM8 (TANGO)  
1 26464U 00045B   26166.18760269  .00011725  00000+0  00000+0 0  9995
2 26464 150.1504  51.7507 9057004 268.7261   2.8044  0.44418308 20307
ODIN                    
1 26702U 01007A   26169.11040362  .00150302  00000+0  95192-3 0  9995
2 26702  97.3824 210.1119 0006539 141.7111 218.4620 15.76090472389549
TIMED                   
1 26998U 01055B   26168.61031799  .00000826  00000+0  78599-4 0  9991
2 26998  74.0674 234.1665 0001140 334.8787  25.2342 14.95295453330884
CORIOLIS                
1 27640U 03001A   26168.97229685  .00000069  00000+0  53111-4 0  9993
2 27640  98.7125 175.8451 0013424 206.4111 153.6382 14.19944946214335
SORCE                   
1 27651U 03004A   26168.73728089  .00002050  00000+0  15749-3 0  9990
2 27651  39.9904 258.5400 0016393  53.3403 306.8896 15.03715505271980
MOST                    
1 27843U 03031D   26168.98564958  .00000037  00000+0  37171-4 0  9990
2 27843  98.7044 176.7005 0008753 247.8572 112.1676 14.21322608190825
SCISAT 1                
1 27858U 03036A   26169.10352136  .00000388  00000+0  54202-4 0  9992
2 27858  73.9283 169.5221 0008518 239.3506 120.6831 14.81448314231588
SWIFT                   
1 28485U 04047A   26169.26827096  .00042553  00000+0  35153-3 0  9994
2 28485  20.5516 176.5603 0001465 304.4264  55.6044 15.68413751187039
HINODE (SOLAR-B)        
1 29479U 06041A   26169.00295341  .00000514  00000+0  96818-4 0  9995
2 29479  98.0546 185.1434 0015993 286.9225  73.0227 14.68624001 54992
SHIJIAN-6 02A (SJ-6 02A)
1 29505U 06046A   26169.27893556  .00002541  00000+0  13228-3 0  9996
2 29505  97.6351 210.3537 0004506 122.6501 237.5167 15.16949350 72437
SHIJIAN-6 02B (SJ-6 02B)
1 29506U 06046B   26169.34603981  .00000907  00000+0  74898-4 0  9991
2 29506  97.7152 198.3977 0015383  57.1126 303.1576 15.01379366 70914
FGRST (GLAST)           
1 33053U 08029A   26169.27623957  .00002178  00000+0  73999-4 0  9996
2 33053  25.5803 196.9202 0007862 342.4117  17.6148 15.23949945996005
SDO                     
1 36395U 10005A   26168.41002763 -.00000096  00000+0  00000+0 0  9992
2 36395  34.6527  86.3378 0001734  44.0102 180.8312  1.00269958 60061
CRYOSAT 2               
1 36508U 10013A   26169.32207150  .00000192  00000+0  46842-4 0  9990
2 36508  92.0356 277.5773 0002144  90.0505 270.0948 14.51899551858242
X-SAT                   
1 37389U 11015C   26169.27860536  .00000103  00000+0  61533-4 0  9994
2 37389  98.3510 146.2502 0013868 345.4064  14.6714 14.25206578787836
GCOM-W1 (SHIZUKU)       
1 38337U 12025A   26169.28724637  .00000362  00000+0  90261-4 0  9999
2 38337  98.2021 109.8262 0001776  74.4678  83.2661 14.57125513749193
NUSTAR                  
1 38358U 12031A   26169.33335648  .00003039  00000+0  13487-3 0  9993
2 38358   6.0288  25.5447 0006660 132.9428  78.1719 15.08814350  1309
NEOSSAT                 
1 39089U 13009D   26169.04575321  .00000110  00000+0  52648-4 0  9993
2 39089  98.4177 349.0579 0009918 240.8823 119.1371 14.35826707696869
BRITE-AUSTRIA           
1 39091U 13009F   26168.97430114  .00000127  00000+0  57868-4 0  9994
2 39091  98.3995 348.3904 0009175 233.8299 126.2040 14.36542409697168
IRIS                    
1 39197U 13033A   26169.10765497  .00000779  00000+0  95406-4 0  9992
2 39197  97.9329   8.3818 0023485 318.7177  41.2261 14.85886785700513
HISAKI (SPRINT-A)       
1 39253U 13049A   26167.83421073  .00000116  00000+0  71628-4 0  9994
2 39253  29.7184 221.8078 0136864  13.9892 346.4420 13.55544715631376
CASSIOPE                
1 39265U 13055A   26169.21169526  .00043493 -51563-6  47401-3 0  9994
2 39265  80.9139  65.4778 0292442  59.0065 303.9542 15.25276722667826
STSAT-3                 
1 39422U 13066G   26169.24474122  .00002841  00000+0  21678-3 0  9997
2 39422  97.6226 139.1159 0011158  42.0847 318.1233 15.02763314684364
